"Name","Phone","Email","Website","Address","Instagram","Facebook","Twitter","Linkedin","Yelp","Youtube","PlaceID","CID","Category","ReviewCount","AverageRating","Latitude","Longitude"
"Consultório Odontológico Dra Taísa Coutinho - Aparelhos Dentais, Tratamento Canal, Atendimento Infantil, Extrações","(47) 99974-1162","","http://www.taisacoutinhodonto.com.br/","R. Pedro Cristiano de Miranda, 1080 - sala 01 - São Vicente,Itajaí - SC,88309-431","","","","","","","ChIJ6SiUWmzN2JQR85YAIRzcIt4","-2440146034710505741","Dentista;Ortodontista","43","5","-26.9076632","-48.6951542"
"Dra Izabella Valente Neves - Consultório Odontológico","(47) 99197-0022","falecom@draizabella.com.br","https://www.draizabella.com.br/","Av. Cel. Marcos Konder, 1313 - Sala 807 - Centro,Itajaí - SC,88301-303","https://www.instagram.com/draizabellaneves","https://www.facebook.com/draizabella,https://www.facebook.com/people","","","","","ChIJ47IGkcPN2JQR1ZLI_K2kLPg","-563894786150853931","Dentista","40","5","-26.912729","-48.6589567"
"Rivière Clínica Odontológica","(47) 98468-0962","","http://riviereodontologia.com.br/","Rua Doutor Nereu Ramos, 197, 8 andar, sala 806,R. Dr. Nereu Ramos, 197 - 8 andar, 806 - Centro,Itajaí - SC,88301-215","","","","","","","ChIJyyZ-BcLN2JQRrGW8ynuHWOk","-1632405899169733204","Periodontia e implantes dentários;Clínica de implante dentário;Dentista;Cirurgião dentista;Ortodontista","401","5","-26.9097866","-48.6600767"
"Via Dental Clínica Odontológica","(47) 3348-7171","","http://www.viadentalclinica.com.br/","Avenida Coronel Marcos Konder, 1313 - salas 602 e 604,Centro,Itajaí - SC,88301-303","https://www.instagram.com/clinicaviadental","https://www.facebook.com/clinicaviadental","","","","","ChIJw1yR-HLM2JQRVCGP7zyGscs","-3769083816857099948","Clínica odontológica;Dentista","20","5","-26.9127671","-48.6589434"
"Dentelli Itajaí","(47) 2125-1327","contato@dentelli.com.br","https://dentelli.com.br/","R. Dr. Nereu Ramos, 67 - Centro,Itajaí - SC,88301-215","https://www.instagram.com/dentelli.odontologia","https://www.facebook.com/dentelli.odontologia","","","","","ChIJXxwgBvfN2JQRTJvDZCBLicg","-3996580591813026996","Dentista","455","5","-26.9090346","-48.6590778"
"Lumière Odontologia | Dentista Itajaí | Implante Dentário Itajaí","(47) 99293-0025","clinica@lumiereodonto.com.br","http://lumiereodonto.com.br/","Marcos Konder · 1207 · sala 25,Centro,Itajaí - SC,88301-303","https://www.instagram.com/lumiere.odonto","https://www.facebook.com/lumiere.odonto","","","","","ChIJ3e7REbrN2JQR8Ygt1awfFJo","-7344210265163069199","Clínica odontológica;Clínica de implante dentário;Dentista;Serviço de clareamento dental","115","5","-26.9115041","-48.6593715"
"Dra Eulecia Casagrande Odontologia","(47) 98905-7058","","http://euleciacasagrande.com/","R. Lauro Muller, 1114 - Fazenda,Itajaí - SC,88301-401","","","","","","","ChIJ2-IsUInL2JQR8JCznlStWos","-8405215175582183184","Clínica odontológica","17","4.9","-26.9150735","-48.6540247"
"KeLin Odontologia","(47) 99261-4857","contato@kelinodontologia.com.br","https://kelinodontologia.com.br/","R. Estefano José Vanolli, 878 - São Vicente,Itajaí - SC,88309-200","https://www.instagram.com/kelinodontologia","https://www.facebook.com/draingridkely","","https://www.linkedin.com/company/kelin-odontologia,https://www.linkedin.com/in/xandemotta,https://www.linkedin.com/company/setup,https://www.linkedin.com/company/seren-app,https://www.linkedin.com/company/tramparnagringa,https://www.linkedin.com/company/porto,https://www.linkedin.com/company/ciandt","","","ChIJk7dLU7fN2JQRjkKa2cQM7tg","-2815298677456092530","Clínica odontológica;Periodontia e implantes dentários;Clínica de implante dentário;Dentista;Endodontista;Cirurgião dentista;Ortodontista","142","5","-26.9018685","-48.6888158"
"Dra Isabella Lima","(47) 99224-2826","","https://instagram.com/dra.isabellalima?igshid=MzRlODBiNWFlZA==","Av. Cel. Marcos Konder, 805 - Sala 1002 - Centro,Itajaí - SC,88301-303","https://www.instagram.com/rsrc.php,https://www.instagram.com/dra.isabellalima,https://www.instagram.com/_u,https://www.instagram.com/rsrc","","","","","","ChIJ2zP-gALN2JQRcS1bXAj0yIw","-8302117596311114383","Clínica odontológica","10","5","-26.909463799999997","-48.660233399999996"
"Dra. Kátia Savelli Gomes (Odontologia)","(47) 98893-0318","","","R. Dr. Pedro Rangel, 154 - Sala 08 - São João,Itajaí - SC,88304-430","","","","","","","ChIJt19Mvc7N2JQRu5D443hUS04","5641695836409204923","Cirurgião dentista;Ortodontista;Odontopediatra","2","5","-26.900495199999998","-48.6796466"
"Consultório União Itajaí (São Vicente)","(47) 3363-7574","laura@gmail.com","http://www.clinicasuniao.com.br/","R. Estefano José Vanolli, 1305 - São Vicente,Itajaí - SC,88309-202","","","","","","","ChIJV1COWY3M2JQRoELdHH6cvf8","-18686757975539040","Clínica odontológica","85","4.9","-26.9060623","-48.6886726"
"Oral Vita Especialidades Odontológicas","(47) 2125-0265","","https://www.facebook.com/oralvitaitajai","R. Heitor Liberato, 1561 - sala 1 - São João,Itajaí - SC,88304-100","","https://www.facebook.com/oralvitaitajai","","","","","ChIJXSWt6_bN2JQRf7P_uH9DvKI","-6720422328099949697","Dentista;Clínica de implante dentário;Cirurgião dentista;Endodontista;Ortodontista","22","4.9","-26.907432099999998","-48.6745308"
"Rodrigo Campanholo Odontologia Estética e Implantes","(47) 99663-6903","","https://www.instagram.com/rodrigo.campanholo/","R. Alm. Tamandaré, 192 - Centro,Itajaí - SC,88301-430","https://www.instagram.com/rsrc.php,https://www.instagram.com/rodrigo.campanholo,https://www.instagram.com/_u,https://www.instagram.com/rsrc","","","","","","ChIJp8DLYyfN2JQRCXHO9Ov7FMk","-3957261181708766967","Clínica odontológica;Dentista cosmético;Dentista;Cirurgião dentista","71","4.9","-26.9089222","-48.6562148"
"Odonto Vergueiro - Dentista 24 horas em Itajaí","(47) 99217-0754","","https://www.instagram.com/odontovergueiro","R. Heitor Liberato, 2150 - centro,Itajaí - SC,88304-101","https://www.instagram.com/rsrc.php,https://www.instagram.com/odontovergueiro,https://www.instagram.com/_u,https://www.instagram.com/rsrc","","","","","","ChIJgXcGGGvN2JQRRuagBiWGQ4g","","Clínica odontológica","40","5","-26.908961599999998","-48.6800527"
"Dra Carolina Bonzanini","(47) 3517-1335","","http://www.carolinadentista.com.br/","Av. Sete de Setembro, 200 - Sala 18 - Centro,Itajaí - SC,88301-200","https://www.instagram.com/dracarolinabonzanini","https://www.facebook.com/dracarolinabonzanini,https://www.facebook.com/dracarolinambonzanini","","","","","ChIJlZritAzM2JQRJBkx5KvVoWM","7179254215249828132","Clínica odontológica;Cirurgião dentista","48","5","-26.908172999999998","-48.658830099999996"
"Ortodoctor Itajaí - Centro","(47) 99654-7619","","","R. Arlécio de Souza Flôr, 70 - Centro,Itajaí - SC,88301-590","","","","","","","ChIJSU_BqCnN2JQRR9Vo3MlNWUc","5141225979001754951","Clínica odontológica","51","4.8","-26.912226999999998","-48.660585"
"Implaorto Itajaí","(47) 99795-5784","","","R. Antônio Manoel Moreira, 175 - Sala 4 - Fazenda,Itajaí - SC,88301-640","","","","","","","ChIJiYnGLTzL2JQRgyB1q645jKs","-6085425574120710013","Dentista","104","5","-26.920492799999998","-48.6522532"
"Oral Unic","(47) 3083-9090","atendimento@oralunicitajai.com.br","https://oralunic.com.br/itajai-sc","Av. Cel. Marcos Konder, 1027 - Centro,Itajaí - SC,88301-215","https://www.instagram.com/oralunicitajai","https://www.facebook.com/oralunicitajaisc","","","","https://www.youtube.com/channel/UC4B6TtRKHFVpx7Z7412Ge1Q","ChIJuc6NVnPM2JQRtVLmsJRBpAY","478579567286964917","Clínica odontológica;Dentista cosmético;Periodontia e implantes dentários;Dentista","230","4.5","-26.9100118","-48.6600179"
"OdontoCare Itajai Odontologia Especializada","(47) 98862-9631","","http://odontocareitajai.meudoutor.com/","R. Carlos Seara, 535 - Vila Operaria,Itajaí - SC,88303-200","","","","","","","ChIJLxkhKmXM2JQRVQCkpk5hDzc","3967496787167805525","Dentista;Cirurgião dentista","49","5","-26.910927899999997","-48.6708618"
"Odontoclinic - Itajaí","","","https://odontoclinic.com.br/unidade/itajai","R. Dr. José Bonifácio Malburg, 105 - Centro,Itajaí - SC,88301-350","https://www.instagram.com/odontoclinic","https://www.facebook.com/odontoclinicbr","","https://www.linkedin.com/company/franquias-odontoclinic","","","ChIJ2QY3fCLN2JQRqtfjDWb5its","-2627013215902246998","Dentista;Dentista cosmético;Clínica odontológica;Clínica de implante dentário;Cirurgião dentista;Ortodontista;Odontopediatra;Clínica de odontopediatria;Periodontista","84","4.8","-26.904158799999998","-48.657578699999995"
"Qualité Odontologia Integrada","(47) 99289-0404","","","R. Indaial, 1111 - Sala 01 - São Judas,Itajaí - SC,88303-303","","","","","","","ChIJEf6wbHHN2JQRn86QGsAiSbA","-5744021641259594081","Clínica odontológica;Clínica de implante dentário;Endodontista;Cirurgião dentista;Ortodontista;Periodontista","173","5","-26.911296099999998","-48.6775508"
"Vittale Odontologia Especializada | Urgências 24H","(47) 98879-8778","","https://vittaleitajai.meudoutor.com/","R. Manoel Viêira Garção, 10 - Sala 702 - Centro,Itajaí - SC,88301-425","","","","","","","ChIJBehYB4HN2JQR9ZIPOtwxUYE","-9128460147766619403","Dentista;Fornecedor de lentes de contato;Clínica odontológica;Clínica de implante dentário;Endodontista;Clínico geral;Ortodontista;Clínica especializada","60","5","-26.9041484","-48.6577522"
"Dra Sarah Pilati Estomatologista","(48) 98802-0284","","","R. Brusque, 553 - Centro,Itajaí - SC,88302-001","","","","","","","ChIJl6ZMYU_N2JQRbpbc_BAg3oM","-8944676552577345938","Dentista","18","5","-26.912322","-48.6663657"
"CEO - Centro de Especialidades Odontológicas de Itajaí","(47) 3247-9778","","http://www.itajai.sc.gov.br/","Av. Gov. Adolfo Konder, 250 - Cidade Nova,Itajaí - SC,88308-002","","","","","","","ChIJgaEtWY7M2JQR1Emh5Uk0Du0","-1365096145056871980","Clínica odontológica","40","4.1","-26.9113913","-48.687155999999995"
"EDENTAL Odontologia","(47) 3045-7472","","https://www.instagram.com/edental_odontologia/","Rua João Bauer, 180 - Centro,Itajaí - SC,88301-500","https://www.instagram.com/rsrc.php,https://www.instagram.com/edental_odontologia,https://www.instagram.com/_u,https://www.instagram.com/rsrc","","","","","","ChIJd3XQPwTN2JQRQAecU6n8vS4","3368125900525406016","Cirurgião dentista","9","4.1","-26.909524599999997","-48.6618869"
"Dr. Charles Nabhan - Ortodontista & Protesista","(47) 99667-4412","","","Av. José Eugênio Müller, 1546 - Sala 4 - Vila Operaria,Itajaí - SC,88303-171","","","","","","","ChIJgd3tWXjM2JQRY5yI8DKcNO0","-1354285845333894045","Cirurgião dentista;Ortodontista;Clínica de Reabilitação","86","5","-26.9166754","-48.6712145"
"Primor Odontologia Especializada","(47) 99735-6597","","https://primorodonto.com.br/","Rua Dr. Cacildo Romagnani, 130 - Centro,Itajaí - SC,88303-023","https://www.instagram.com/primor.odontologia","https://www.facebook.com/primor.odontologia.especializada","","","","","ChIJPcbqPHLM2JQR5RVhNkzF4io","3090249225450100197","Dentista","65","4.9","-26.9070921","-48.6635031"
"Mappi Odontologia - Itajaí","(47) 3346-7602","","https://www.mappiodontologia.com.br/","R. Brusque, 676 - Centro,Itajaí - SC,88303-001","","","","","","","ChIJZ82GUwHN2JQRzJEIMas5kIY","-8750430668556037684","Clínica odontológica","55","5","-26.9131665","-48.6674752"
"Odonto Excellence","(47) 2122-5656","contato@odontoexcellence.com.br","https://www.odontoexcellence.com.br/","R. Agílio Cunha, 1340 - Cidade Nova,Itajaí - SC,88308-663","https://www.instagram.com/odontoexcellence.franchising","https://www.facebook.com/franquiaodontoexcellence","","","","","ChIJnSfaD0vN2JQRsr83Vmp88Lk","-5048398386127454286","Dentista","31","3.8","-26.926842399999998","-48.695926299999996"
"Clínica Moon Odontologia","(47) 98844-0079","","http://clinicamoon.com.br/","R. Brusque, 116 - Centro,Itajaí - SC,88303-000","","","","","","","ChIJsSdZkgHN2JQR2xJe8cIjXuk","-1630826694881439013","Dentista;Centro de saúde e beleza;Cirurgião dentista","7","5","-26.9088861","-48.6637493"
"Dra. Gabrielle Gomes Odontologia Especializada","(47) 99954-2867","dra.gabriellelopesgomes@gmail.com","https://dragabriellegomes.com.br/","R. José Lopes, 1175 - Cordeiros,Itajaí - SC,88310-651","https://www.instagram.com/dra.gabriellelopesgomes","https://www.facebook.com/dragabriellegomes.com.br","","","","","ChIJl-1NTm_N2JQRDEFEdvT01HY","8562738122331537676","Dentista","49","5","-26.898830999999998","-48.703770999999996"
"Dra Daniela Petrovcic - Odontologia Especializada","(47) 99178-5707","","","Rua João Bauer, 335 - Centro,Itajaí - SC,88301-500","","","","","","","ChIJ3fJk7fvN2JQRypasS2pBKvI","-996912442717202742","Clínica odontológica","13","5","-26.910475299999998","-48.660683899999995"
"Dom Sorriso Itajaí - Centro Odontológico","","","http://www.instagram.com/domsorrisoitajai","R. Estefano José Vanolli, 341 - São Vicente,Itajaí - SC,88309-201","https://www.instagram.com/rsrc.php,https://www.instagram.com/domsorrisoitajai,https://www.instagram.com/_u,https://www.instagram.com/rsrc","","","","","","ChIJRwWvL2TN2JQRJXhDPMAlS5Q","-7761068025267914715","Clínica odontológica","35","4.1","-26.8971147","-48.6884934"
"Dra. Bruna Ramos e Dra. Gladis Spat","(47) 3021-6637","","","R. Uruguai, 223 - Sala 1613 - Centro,Itajaí - SC,88302-200","","","","","","","ChIJ_UDiWXPM2JQRz2XWI4Oem1M","6024583212617328079","Dentista;Dentista cosmético;Clínica odontológica;Cirurgião dentista;Clínica de odontopediatria","8","4.5","-26.911041299999997","-48.662782"
"REDEORTO Itajaí","(47) 3021-7810","","https://redeorto.com.br/unidades/clinica-odontologica-em-itajai","R. Manoel Viêira Garção, 54 - sala 202 , 2º andar - Centro,Itajaí - SC,88301-425","","","","","","","ChIJ1bG5WJLN2JQRhxtRkDY-y8I","-4410363006008878201","Clínica odontológica","29","4.9","-26.9043584","-48.6573838"
"Dra. Juliana Andrade Araújo","(47) 3514-0571","odonto.drajuliana@gmail.com","https://drajulianaaraujo.com.br/","Centro Comercial Liberty,Av. Cel. Marcos Konder, 1313 - sala 401 - Centro,Itajaí - SC,88301-303","","","","","","","ChIJZ3IkKf_N2JQR6Z9CBxhr4m4","7990066439853875177","Dentista","","","-26.9075684","-48.661799599999995"
"Dra Fabíola Scolari Schreiber","(47) 99739-8237","","","ed Embraed,Av. Cel. Marcos Konder, 1207 - sala 18 , 1 andar - Centro,Itajaí - SC,88301-902","","","","","","","ChIJa_t4Dg3M2JQR412P2uD6Q-8","-1205844431558713885","Dentista","100","5","-26.911547199999998","-48.6594012"
"Oral Brasil Implantes","(47) 99143-4668","","https://oralbrasilitajai.com.br/avaliacao-2/","Av. Sete de Setembro, 1024 - Fazenda,Itajaí - SC,88301-202","","","","","","","ChIJ7VvmCbrL2JQR7r8fXYq2yPY","-664080239653044242","Clínica odontológica;Clínica de implante dentário;Dentista;Cirurgião dentista","46","4.7","-26.915227299999998","-48.656002799999996"
"Clínica Dentária Popular","(47) 3045-3565","","http://www.facebook.com/clinicapopular","Av. Sete de Setembro, 100 - 1° Andar - Centro,Itajaí - SC,88301-200","","","","","","","ChIJdwXkMnPM2JQRCwSkAy9G3u0","-1306529674152377333","Clínica odontológica","20","3.8","-26.9076056","-48.6590426"
"Dent Kids Odontopediatria","(47) 3515-7336","","https://dentkids.com.br/","Av. Cel. Marcos Konder, 484 - Sala 1 - Centro,Itajaí - SC,88301-300","https://www.instagram.com/dentkidsfamily","","","","","","ChIJaxmk4AXN2JQREAdcv-HiKjw","4335527050503522064","Clínica de odontopediatria;Odontopediatra","46","5","-26.906323399999998","-48.6620689"
"Odonto Excellence Itajaí - Fazenda","(47) 3021-6252","","https://instagram.com/odontoitajaifazenda?igshid=MzRlODBiNWFlZA==","R. Florianópolis, 251 - Sala 03 - Fazenda,Itajaí - SC,88301-670","https://www.instagram.com/rsrc.php,https://www.instagram.com/odontoitajaifazenda,https://www.instagram.com/_u,https://www.instagram.com/rsrc","","","","","","ChIJk0Umg3zL2JQRDPWQ2b-AcLk","-5084422417824025332","Clínica odontológica","30","3.4","-26.924003199999998","-48.6503847"
"Dr Fábio Maestri - Facetas de Resina Premium, Lentes de Porcelana e Ortodontia em Itajaí","(47) 99181-2675","","http://www.clinicamaestri.com.br/","R. Gaspar, 236 - sala 1 - São Judas,Itajaí - SC,88303-320","https://www.instagram.com/dr.fabiomaestri,https://www.instagram.com/maestriodontologia","https://www.facebook.com/maestriodontologia","","","","","ChIJGx67dvHT2JQR5SZxzEvvNsI","-4452108072777603355","Dentista","45","5","-26.9096788","-48.6762363"
"Zanchett Odontologia","(47) 98922-3314","","","R. Dr. Pedro Ferreira, 155 - sala 1509 - Centro,Itajaí - SC,88301-030","","","","","","","ChIJOXLq3_PN2JQRBNaoSuprJDg","4045477019304646148","Dentista","33","5","-26.903912","-48.6572268"
"Dra Thais Rother | Ortodontista","(47) 99250-3737","","","Rua João Bauer, 498 - Sala 505 - Centro,Itajaí - SC,88301-401","","","","","","","ChIJydh2gDa32JQR47m81n-ZpI4","-8168235049800648221","Dentista","45","5","-26.9117958","-48.6601089"
"Dra. Amanda Teotônio - Itajaí","(47) 99681-2636","","","R. Franklin Máximo Pereira, 119 - Centro,Itajaí - SC,88301-230","","","","","","","ChIJv4BsstfN2JQR09GzI5n7UiY","2761546156679090643","Clínica odontológica;Clínica de implante dentário","1","5","-26.911751499999998","-48.6638975"
"Dr. Lucas Bernhardt da Cruz & Dra. Vivian R. Castro da Cruz - ODONTOITAJAI","(47) 3045-1060","","","R. Dr. Nereu Ramos, 197 - sala 1301 - Centro,Itajaí - SC,88301-215","","","","","","","ChIJLdQAiW3M2JQR2nhH19GtMWU","7291800388461099226","Dentista;Cirurgião dentista","48","5","-26.909824399999998","-48.660178699999996"
"Dra. Julia Kammer | Arte na Odontologia","(47) 99737-1660","","https://www.instagram.com/juliakammer_?igsh=MThvMmUwaGF6MDJocQ==&utm_source=qr","Riviera Business & Mall,Av. Osvaldo Reis, 3281 - sala 1504 - Praia Brava,Itajaí - SC,88306-773","https://www.instagram.com/rsrc.php,https://www.instagram.com/juliakammer_,https://www.instagram.com/_u,https://www.instagram.com/rsrc","","","","","","ChIJed7dlxXL2JQRcq5Tz3_uzPw","-230547248196112782","Dentista","5","5","-26.9523187","-48.6397494"
"Clinics Odontologia","(47) 99618-8000","","https://wa.me/5547996188000","Rua: Otto Hoier, 45 - Cidade Nova,Itajaí - SC,88308-100","https://www.instagram.com/whatsapp","https://www.facebook.com/brand,https://www.facebook.com/business","https://twitter.com/whatsapp","","","https://www.youtube.com/channel/UCAuerig2N-RZWJT8x75V9yw","ChIJe7jhj5fN2JQRm80ipWfou1I","5961614063604780443","Clínica odontológica","27","5","-26.911070499999997","-48.6854182"
"FZ ODONTOLOGIA - Dr Felipe Zanella","(47) 98832-3541","contato@fzodontologia.com.br","https://fzodontologia.com.br/","R. Dr. Pedro Ferreira, 155 - sala 1611 - Centro,Itajaí - SC,88880-000","https://www.instagram.com/fzodontologia","https://www.facebook.com/FZodontologia","","","","","ChIJ98gi1xrN2JQRAEdC1jhutj4","4518920466504763136","Dentista;Clínica odontológica","38","5","-26.9038729","-48.657185"
"Dra. Karina Cestari - Ortodontia","(47) 99605-9667","","","R. Dr. Nereu Ramos, 197 - sala 1202 - Centro,Itajaí - SC,88301-215","","","","","","","ChIJ2dN0VHPM2JQRr8afhEv70Rw","2076717204960691887","Dentista","36","5","-26.9097866","-48.6600767"
"ATM Dentistas","(47) 3248-1972","clinicaodontologica.recepcao@gmail.com","http://www.atmdentistas.com.br/","R. Hercílio Luz, 596 - sala 102 - Centro,Itajaí - SC,88301-001","","","","","","","ChIJ4d9JwnLM2JQR2pkxtlQ_UOU","-1922967407820695078","Dentista;Cirurgião dentista","199","4.7","-26.9064315","-48.660562299999995"
"OrthoDontic Itajaí SC | Aparelho Ortodôntico, Dentista, Clareamento Dental, Alinhador Invisível, Tratamento de Canal","(47) 99932-1315","itajai@orthodonticbrasil.com.br","https://www.orthodonticbrasil.com.br/clinicas/itajai-40/","R. Heitor Liberato, 1041 - Sala 01 - Centro,Itajaí - SC,88303-101","https://www.instagram.com/orthodontic.br","https://www.facebook.com/orthodontic.br","","https://www.linkedin.com/company/orthodontic-brasil","","https://www.youtube.com/channel/UCvhefQokbY-tulo7JHULnJQ","ChIJ94zngm_M2JQRD7uOrWRGmp8","-6946162077043082481","Clínica odontológica;Periodontia e implantes dentários;Dentista;Endodontista;Ortodontista;Clínica especializada","300","4.5","-26.9054883","-48.668422899999996"
"Dr. Franklin Valentin","(47) 99230-1575","","","R. Estefano José Vanolli, 1200 - sala 2 - São Vicente,Itajaí - SC,88309-201","","","","","","","ChIJe7JI4mnN2JQRNoC6LKe5xlM","6036716478197825590","Dentista","26","5","-26.9048439","-48.6889586"
"Dra Bruna Zardo","(47) 98423-5153","","https://www.facebook.com/drabrunazardo/","R. Uruguai, 223 - Centro,Itajaí - SC,88302-201","","https://www.facebook.com/drabrunazardo","","","","","ChIJffbyGCSTuWMRziemxWRWh8Q","-4285361529607018546","Dentista","11","5","-26.911041299999997","-48.662782"
"Laudares Odontologia Itajaí","(47) 3045-3510","","","Edifício Liberty,Av. Cel. Marcos Konder, 1313 - Sala 704 - Centro,Itajaí - SC,88301-904","","","","","","","ChIJAxNw2N7N2JQRD1uWrVDAkfs","-319262645824365809","Dentista;Periodontia e implantes dentários;Clínica de implante dentário;Cirurgião dentista;Ortodontista","23","4.8","-26.9126531","-48.6588755"
"Odonto Excellence","(47) 3398-2793","contato@odontoexcellence.com.br","https://www.odontoexcellence.com.br/","Rua Bernardo Petter, 437 - São João,Itajaí - SC,88304-140","https://www.instagram.com/odontoexcellence.franchising","https://www.facebook.com/franquiaodontoexcellence","","","","","ChIJU0DitWHM2JQRxuC2RJuiHcU","-4243056486156672826","Dentista;Clínica odontológica;Periodontia e implantes dentários;Cirurgião dentista;Periodontista","172","4.5","-26.9041906","-48.6775775"
"OdontoMais Implantes","(47) 2033-6118","","https://www.facebook.com/odontomaisimplantes","R. Felipe Schmidt, 400 - Centro,Itajaí - SC,88301-041","","https://www.facebook.com/odontomaisimplantes","","","","","ChIJ3UxMV0vN2JQR3yY_RQfz-8A","-4540768586720925985","Clínica de implante dentário;Clínica odontológica;Periodontia e implantes dentários;Dentista;Cirurgião oral e maxilofacial;Cirurgião dentista;Ortodontista;Periodontista","123","4.7","-26.9044785","-48.658045099999995"
"Espaço Orto | Clínica Odontológica em Itajaí","(47) 3344-4805","","https://www.espacoorto.com.br/","R. Estefano José Vanolli, 600 - São Vicente,Itajaí - SC,88309-201","","","","","","","ChIJcfWwu4vN2JQR_6Mj-g-AW6k","-6243255652309556225","Clínica odontológica","33","4.7","-26.8993386","-48.6888869"
"Sorrivita Odontologia - Clinica odontológica","(47) 98858-0260","","https://www.instagram.com/sorrivita.odontologia?igsh=bWNna3V2ZHMzdDRh&utm_source=qr","R. José Pereira Liberato, 987 - sala 04 - São João,Itajaí - SC,88304-400","https://www.instagram.com/rsrc.php,https://www.instagram.com/sorrivita.odontologia,https://www.instagram.com/_u,https://www.instagram.com/rsrc","","","","","","ChIJiy-sH6vN2JQRN7qCht-Dwpw","-7151008262253266377","Clínica odontológica;Limpeza;Clínica de implante dentário;Dentista;Endodontista;Cirurgião oral e maxilofacial;Cirurgião dentista;Periodontista","26","5","-26.900486599999997","-48.6821572"
"Odontologia Integrada São Vicente","(47) 99601-7895","","","R. São Joaquim, 193 - São Vicente,Itajaí - SC,88309-000","","","","","","","ChIJrYTcwwDN2JQR27eLHePt8cI","-4399473801255208997","Clínica odontológica","3","5","-26.8977617","-48.6867812"
"COE Centro de Odontologia Especializada","(47) 98458-0642","contato@coeitajai.com.br","http://www.coeitajai.com.br/","Av. Min. Victor Konder, 550 - Centro,Itajaí - SC,88301-701","https://www.instagram.com/coeodontologia.itajai","https://www.facebook.com/coeodontologia.itajai","","","","","ChIJv_YuGwrM2JQRKm4bVRoDQxc","1676186897943850538","Dentista","5","4.2","-26.9127542","-48.6536587"
"Sorridents","(47) 3021-7569","faleconosco@sorridents.com.br","https://sorridents.com.br/itajai/","R. Felipe Schmidt, 370 - Andar Térreo - Centro,Itajaí - SC,88301-041","https://www.instagram.com/sorridents_clinicas","https://www.facebook.com/sorridents","","","","https://www.youtube.com/user/SorridentsClinicas","ChIJrd_anHrN2JQRy1udIk7Ewug","-1674560271561172021","Clínica odontológica;Dentista cosmético;Clínica de implante dentário;Dentista;Cirurgião dentista;Ortodontista;Odontopediatra;Clínica de odontopediatria;Periodontista","52","4.5","-26.904789299999997","-48.6579353"
"Clínica L'amitié Odontologia Especializada","(47) 3083-7881","clinicalamitie@hotmail.com","https://clinicalamitie.com/","R. Expedicionário Olímpio José Borges, 23 - São Vicente,Itajaí - SC,88309-290","https://www.instagram.com/clinicalamitie","https://www.facebook.com/clinicalamitie","","","","","ChIJqZJxAPvN2JQRf28LNzzhwYE","-9096742123573907585","Clínica odontológica","37","4.4","-26.903419","-48.6890414"
"TH CENTRO ODONTOLÓGICO","(47) 3075-0611","","https://www.facebook.com/thcentroodontologico/?pnr","Av. Cel. Marcos Konder, 1207 - sala 160 - Centro,Itajaí - SC,88301-902","","https://www.facebook.com/thcentroodontologico","","","","","ChIJ4QAc0XTM2JQRNvJO-_G074U","-8795612595834916298","Dentista","7","3.9","-26.9114537","-48.6593917"
"Dr. Gabriel De Nardi - Cirurgião Dentista","(47) 99111-7943","","","R. Estefano José Vanolli, 1200 - São Vicente,Itajaí - SC,88309-202","","","","","","","ChIJpy10043N2JQRpSqb5rcj7po","-7282844274656597339","Dentista","13","4.9","-26.904844299999997","-48.688897499999996"
"Consultorio Odontológico Dra Bianca Prazeres","(47) 3344-2245","","","Av. Cel. Marcos Konder, 1313 - Centro,Itajaí - SC,88301-303","","","","","","","ChIJI2MjLHXM2JQRwBwN-6UE3bI","-5558281254177268544","Dentista","13","4.9","-26.912761099999997","-48.6589904"
"Palmezan Odontologia","(47) 3046-3197","","","R. Indaial, 1111 - São Judas,Itajaí - SC,88303-303","","","","","","","ChIJPRkQg63N2JQRK9Ib66hPyo0","-8229677782148591061","Dentista","4","5","-26.911375999999997","-48.677523699999995"
"Inttegra Odontologia Especializada","(47) 99677-5889","","","R. São Paulo, 302 - São Judas,Itajaí - SC,88303-330","","","","","","","ChIJAwW-ZJTN2JQRnxWwZ-Gbtfo","-381227201033398881","Clínica odontológica;Cirurgião dentista","52","4.5","-26.911103999999998","-48.6772555"
"Odontologia Integrada Cordeiros","(47) 99651-2122","","","R. Sebastião Romeu Soares, 449 - Cordeiros,Itajaí - SC,88311-141","","","","","","","ChIJVz3Ns-jN2JQRqktGYx8iMoE","-9137203175776433238","Clínica odontológica","72","4.9","-26.8835482","-48.6999451"
"Consultório Dra Leonilda Terezinha Jaboinski","(47) 3348-2871","","","R. Lauro Muller, 968 - Centro,Itajaí - SC,88301-401","","","","","","","ChIJhTuIe3PM2JQRfvvzy5qLIu4","-1287313046511551618","Dentista","1","5","-26.913733099999998","-48.654238"
"AmorSaúde Itajaí.","(47) 3021-3647","","https://www.amorsaude.com.br/clinica/itajai-sc/","R. Dr. Pedro Ferreira, 180 - Centro,Itajaí - SC,88301-030","https://www.instagram.com/amorsaudebrasil","https://www.facebook.com/amorsaudebrasil","","https://www.linkedin.com/company/amorsaudebrasil","","https://www.youtube.com/channel/UCd9oI3h_8AjFyrz2ljDSEFg","ChIJgxIroxLM2JQRwv_J8K1jE0Q","4905374017856864194","Dentista;Clínica odontológica;Centro médico;Médico;Policlínica;Ortodontista","522","3.5","-26.903507599999998","-48.6573065"
"OdontoCompany","(47) 3514-7504","","http://www.odontocompany.com/","R. Herculano Corrêa, 150 - Centro,Itajaí - SC,88301-580","https://www.instagram.com/odontocompany","https://www.facebook.com/odontocompany","","https://www.linkedin.com/company/3792185","","https://www.youtube.com/channel/UCnNrmgnEW-6zs20tivtrYKA","ChIJ49z-c2jN2JQRyWp5Oo-LD0w","5480752718810802889","Clínica odontológica;Periodontia e implantes dentários;Clínica de implante dentário;Dentista;Cirurgião dentista;Ortodontista","43","4","-26.9117785","-48.6619738"
"Sbucal - Odontologia Especializada","(47) 99217-6690","","https://www.facebook.com/sbucalconsultorio/","R. Dr. Nereu Ramos, 197 - 1202 - Centro,Itajaí - SC,88301-215","","https://www.facebook.com/sbucalconsultorio","","","","","ChIJzZoCDjvN2JQR--B-INcpZL4","-4727607704892284677","Dentista","1","5","-26.9098489","-48.6600192"
"Consultório Odontológico Dra. Gabriela","(47) 3011-8074","","https://www.instagram.com/consultorio.dragabriela/","R. Indaial, 985 - Dom Bosco,Itajaí - SC,88303-303","https://www.instagram.com/rsrc.php,https://www.instagram.com/consultorio.dragabriela,https://www.instagram.com/_u,https://www.instagram.com/rsrc","","","","","","ChIJnTVwWtvN2JQRxXN1tH2xOak","-6252771454170598459","Cirurgião dentista","7","2.7","-26.9124904","-48.6774589"
"Dra. Mariana Heusi - Facetas em Porcelana Itajaí","(47) 99650-0008","","","R. Juvêncio Taváres D'amaral, 78 - Cabeçudas,Itajaí - SC,88306-400","","","","","","","ChIJQThGu5fJ2JQRGGeu386IMUE","4697686308421527320","Cirurgião dentista","4","5","-26.9253124","-48.6345342"
"Odontoitajaí | Dr. Lucas e Dra. Vivian Cruz","(47) 3045-1060","","http://odontoitajai.com.br/","R. Dr. Nereu Ramos, 197 - sala 1301 - Centro,Itajaí - SC,88301-215","","","","","","","ChIJuzmMiW3M2JQRoLVhAXYaaFE","5865967608781714848","Clínica odontológica;Policlínica","2","5","-26.909824399999998","-48.660178699999996"
"Moraes Mezadri Odontologia","(47) 2033-6857","","https://api.whatsapp.com/send?phone=554720336857","R. Luiz Berlim, 12 - sala 02 - Centro,Itajaí - SC,88302-010","https://www.instagram.com/whatsapp","https://www.facebook.com/brand,https://www.facebook.com/business","https://twitter.com/whatsapp","","","https://www.youtube.com/channel/UCAuerig2N-RZWJT8x75V9yw","ChIJG870GrfN2JQRTmOOmN35y0k","5317618515183559502","Clínica odontológica;Clínica de implante dentário;Dentista;Endodontista;Ortodontista;Odontopediatra;Periodontista","68","5","-26.9121526","-48.6663023"
"Grupo Odontológico","(47) 99136-3371","","","R. Umbelino Damásio de Brito, 138 - Centro,Itajaí - SC,88303-050","","","","","","","ChIJV4_px3DM2JQRErGPli-8ztg","-2824113003739238126","Dentista","8","4.6","-26.911699","-48.667645"
"Belles Odontologia - Odontologia Estética","(47) 3021-7995","","https://bellesodontologia.com.br/belles-odonto-new-page","R. Hercílio Luz, 201 - Centro,Itajaí - SC,88301-001","https://www.instagram.com/bellesodontologia","","","","","https://www.youtube.com/channel/UCQl939gQIo5wPg2InhH1SlA","ChIJV4ibyx_N2JQRkGb-nmj1xwA","56283350058296976","Dentista;Clínica odontológica;Clínica de implante dentário;Cirurgião dentista;Ortodontista;Periodontista","24","5","-26.9053996","-48.6565574"
"Instituto de Odontologia e Oftalmologia em Itajaí","(47) 99631-7873","","https://odontologiaeoftalmologia.com.br/dr-thiago-issamu-oftalmologista/","R. Franklin Máximo Pereira, 119 - Centro,Itajaí - SC,88302-020","","","","","","","ChIJn9ZvZ5vN2JQRi-nxPE8R0JI","-7867769516993681013","Oftalmologista;Periodontia e implantes dentários;Clínica de implante dentário;Clínica oftalmológica","102","4.9","-26.9117671","-48.663896199999996"
"Consultório Odontológico Dr. Jorge Silva","(47) 99159-8533","","","Ed Genésio Miranda Lins (Ed Redondo,Rua Pedro Ferreira, 155 Salas 1404 e 1404-A,14º Andar - Centro,Itajaí - SC, 88301-030","","","","","","","ChIJt7qDCtLN2JQRgqsjdnVuioU","-8824119069106787454","Dentista","10","5","-26.9039424","-48.6573037"
"Vamos Sorrir Odontologia","(47) 3075-0059","","https://vamossorrir.com.br/","R. Hercílio Luz, 586 - Centro,Itajaí - SC,88301-001","","","","","","","ChIJaa3gfIDN2JQRNC9PWpHw-5A","-7999535806017491148","Dentista","21","4.6","-26.9063444","-48.6604312"
"Consultório Dentário","(47) 98897-7431","","https://www.facebook.com/consultoriosantaregina","Av. José João Corrêa, 330 - Espinheiros,Itajaí - SC,88317-506","","https://www.facebook.com/consultoriosantaregina","","","","","ChIJ0dlbXeEz35QRb4JNkgCH3MA","-4549613087026740625","Dentista","2","5","-26.881767099999998","-48.7474856"
"Sussek Odontologia","(47) 3346-4259","cassianesussek@gmail.com","https://sussek.com.br/contato/","R. Alm. Barroso, 417 - Centro,Itajaí - SC,88303-040","","","","","","","ChIJq6peSnDM2JQRBxV5fLwcqGM","7181021201709995271","Dentista","22","4.7","-26.908405499999997","-48.6665723"
"Oral Pop Odontologia","(47) 3046-3436","","","Av. Sete de Setembro, 200 - sala 12 - Centro,Itajaí - SC,88301-200","","","","","","","ChIJf8EktQzM2JQRhb4MNOZTjy4","3354992495595142789","Dentista","21","4.8","-26.907980499999997","-48.6589199"
"Dra. Luiza Schug Odontologia","(47) 99167-1208","","https://wa.me/message/U34LW26DNSW6G1","R. Waldemar da Silva, 384 - Santa Regina,Itajaí - SC,88317-525","https://www.instagram.com/whatsapp","https://www.facebook.com/brand,https://www.facebook.com/business","https://twitter.com/whatsapp","","","https://www.youtube.com/channel/UCAuerig2N-RZWJT8x75V9yw","ChIJyekhO4Mz35QR5B8g7EFdaoI","-9049317963531804700","Dentista;Clínica odontológica;Serviço dentário de emergência;Clínico geral;Cirurgião dentista;Odontopediatra;Clínica de odontopediatria","44","5","-26.881877","-48.749722"
"Kalid Hussein Wardani","(47) 3346-1321","","","R. São Cristóvão, 657 - Cordeiros,Itajaí - SC,88310-160","","","","","","","ChIJfZvPy-PM2JQRkU0usSC3fmE","7025253819783990673","Ortodontista;Dentista;Cirurgião dentista;Radiologista","4","5","-26.8899318","-48.692933"
"Vinícius Borges Dentista","(47) 99645-8935","","https://instagram.com/drviniciusborges?utm_medium=copy_link","R. Alberto Dagnoni, 443 - Santa regina,Itajaí - SC,88317-540","https://www.instagram.com/rsrc.php,https://www.instagram.com/drviniciusborges,https://www.instagram.com/_u,https://www.instagram.com/rsrc","","","","","","ChIJ85g6oisz35QRWwy6cWXIYk4","5648297220701293659","Dentista","28","4.9","-26.881013499999998","-48.746471"
"André Freitas Implantes e Odontologia Estética","(47) 99723-8373","","https://www.andrefreitasimplantes.com.br/","R. 13 de Maio, 21B - Centro,Itajaí - SC,88301-550","","","","","","","ChIJTb8Rl3PM2JQRSZ8w8OH_NVU","6140095012851982153","Clínica de implante dentário;Dentista cosmético;Clínica odontológica;Periodontia e implantes dentários;Dentista;Cirurgião dentista;Periodontista","48","5","-26.9094025","-48.6621786"
"Maestri Odontologia","(47) 99181-2675","","http://www.clinicamaestri.com.br/","R. Dr. Reinaldo Schmithausen, 2350 - 1 andar - Cordeiros,Itajaí - SC,88311-480","https://www.instagram.com/dr.fabiomaestri,https://www.instagram.com/maestriodontologia","https://www.facebook.com/maestriodontologia","","","","","ChIJZxUFe5vN2JQRBhDQ3NKK_WI","7133010023077122054","Dentista;Dentista cosmético;Periodontia e implantes dentários;Endodontista;Ortodontista;Odontopediatra;Clínica para viajantes internacionais","18","5","-26.8876523","-48.7063205"
"Conquist Odontologia","(47) 3046-9090","","http://www.conquistodontologia.com.br/","R. Samuel Heusi, 356 - Centro,Itajaí - SC,88301-320","https://www.instagram.com/redeconquistodontologia","https://www.facebook.com/RedeConquist,https://www.facebook.com/sharer","","","","https://www.youtube.com/channel/UCdzT-76nw_63mP-WM9EY41A","ChIJi9FMYW3M2JQR-Y_8b1yQFr4","-4749450030325395463","Clínica odontológica;Clínica de implante dentário;Dentista;Endodontista;Cirurgião dentista;Ortodontista;Odontopediatra;Clínica de odontopediatria;Periodontista","68","4","-26.9046612","-48.660723"
"Beal odontologia","(47) 99215-6787","","","R. Agílio Cunha, 1287 - Cidade Nova,Itajaí - SC,88308-150","","","","","","","ChIJ5wtz8GfN2JQRpjnl6FD9-UY","5114397375802456486","Dentista","","","-26.9266541","-48.6952851"
"L'espace Itajaí Odontologia Especializada","(47) 3048-0651","","","Rua Gustavo Bernedt, 1101 - Cordeiros,Itajaí - SC,88310-551","","","","","","","ChIJpVkr5FHN2JQRshx0IPD6ZSs","3127181425522252978","Clínica odontológica","3","4.3","-26.8978139","-48.7005379"
"Odonto Excellence - Cordeiros","(47) 3083-2200","contato@odontoexcellence.com.br","https://www.odontoexcellence.com.br/","R. Dr. Reinaldo Schmithausen, 1200 - Cordeiros,Itajaí - SC,88310-000","https://www.instagram.com/odontoexcellence.franchising","https://www.facebook.com/franquiaodontoexcellence","","","","","ChIJKSQbuh7N2JQRLzkXB4kBxBk","1856610634424596783","Clínica odontológica","96","4","-26.8839069","-48.6951087"
"Odontologic odontologia e estética orofacial","(47) 99701-7609","","http://www.facebook.com/odontologicitajai-2217582901811960/","odontologic odontologia integrada,R. Antônio Cirílo Dutra, 104 - sala 2 - São Vicente,Itajaí - SC,88309-130","","https://www.facebook.com/people","","","","","ChIJtd534RvN2JQRw193l02w6qM","-6635297253676851261","Cirurgião dentista;Clínica odontológica;Periodontia e implantes dentários;Endodontista;Ortodontista;Odontopediatra","16","5","-26.9020069","-48.6880162"
"Clínica de Odontologia UNIVALI","(47) 3341-7662","","","R. Uruguai, 458 - bloco c5 sala 207 - Centro,Itajaí - SC","","","","","","","ChIJ1V0uaaPL2JQRTjR-8syFadk","","Clínica odontológica","4","4.3","-26.9161592","-48.6639044"
"B.O Odontologia","(47) 3348-6160","","","R. Dr. José Bonifácio Malburg, 301 - sala 3 - Centro,Itajaí - SC,88301-350","","","","","","","ChIJSxqarXLM2JQRTMS4EPbNhxE","1263204677226906700","Clínica odontológica","8","5","-26.9052619","-48.6594303"
"Consultório Odontológico Dr Glauco Miranda","(47) 99708-7564","","","R. Cônego Tomás Fontes, 164 - Centro,Itajaí - SC,88301-100","","","","","","","ChIJZaeM6FbN2JQR0bFFWJ49JVw","6639780975922754001","Ortodontista;Clínica de implante dentário;Clínico geral;Cirurgião oral e maxilofacial","12","4.3","-26.903603","-48.6606683"
"Consultório Odontológico Dr Marcelo Schroeder","(47) 3246-6647","","","R. Mario Bento dos Passos, 1230 - Cordeiros,Itajaí - SC,88310-681","","","","","","","ChIJSwBLbNvM2JQRyTJpBSpurjg","4084323038830080713","Dentista","1","5","-26.8995893","-48.7058916"
"Uniodonto","(47) 3045-5000","","http://uniodontosc.coop.br/","Av. Colonel Marcos Konder 805 1st floor room 103,Centro,Itajaí - SC,88301-302","https://www.instagram.com/uniodontosc","https://www.facebook.com/uniodontosc","","https://br.linkedin.com/company/uniodonto-santa-catarina","","","ChIJAQCwYHPM2JQRLMOKTib7Qxo","1892632410370786092","Clínica odontológica","6","1.5","-26.909463799999997","-48.660233399999996"
"Harmonize Odontologia","(47) 99749-2892","","","R. Tijucas, 261 - Centro,Itajaí - SC,88301-360","","","","","","","ChIJuS2hx0HN2JQRY-rYR9bjIoY","-8781205813951141277","Clínica odontológica","9","5","-26.905213699999997","-48.6640921"
"OrthoDontic Itajaí | Aparelho Ortodôntico, Dentista, Clareamento Dental, Alinhador Invisível, Tratamento de Canal","(47) 99744-0355","oc207@orthodonticbrasil.com.br","https://www.orthodonticbrasil.com.br/clinicas/itajai-207/","R. Dr. José Bonifácio Malburg, 204 - Loja 01 - Centro,Itajaí - SC,88301-350","https://www.instagram.com/orthodontic.br","https://www.facebook.com/orthodontic.br","","https://www.linkedin.com/company/orthodontic-brasil","","https://www.youtube.com/channel/UCvhefQokbY-tulo7JHULnJQ","ChIJAQDQVQ3M2JQRfP8jdDRugww","901685521970102140","Dentista","65","4.1","-26.9044782","-48.6587398"
"Dra Elisa Schmeling","(47) 3344-4833","","https://www.instagram.com/elisa.odontopediatra/?hl=pt-br","Av. Cel. Marcos Konder, 805 - sala 408 - Centro,Itajaí - SC,88301-303","https://www.instagram.com/rsrc.php,https://www.instagram.com/elisa.odontopediatra,https://www.instagram.com/_u,https://www.instagram.com/rsrc","","","","","","ChIJPTGv1Y3N2JQRstdNHFE5PbQ","-5459144152773175374","Odontopediatra","3","5","-26.909463799999997","-48.660233399999996"
"Dra. Kathiane Koepsel da Silva","(47) 3514-4444","","https://www.instagram.com/drakathianekoepsel/","R. Juvenal García, 125 - sala térrea - Centro,Itajaí - SC,88302-040","https://www.instagram.com/rsrc.php,https://www.instagram.com/drakathianekoepsel,https://www.instagram.com/_u,https://www.instagram.com/rsrc","","","","","","ChIJ8bepZ0nN2JQR0ihrFLXRFgk","654941371490838738","Dentista","14","5","-26.9127889","-48.662920299999996"
"Dentista Itajaí","(47) 99793-3258","","","Av. Cel. Marcos Konder - Centro,Itajaí - SC,88301-904","","","","","","","ChIJwWu0FYvJ2JQRG0XQe-bTw4k","-8519733083181660901","Dentista","2","3","-26.9126624","-48.6589974"
"Dentista Thaís Piccolo - Tratamento de Canal","(47) 98835-4488","","","R. Heitor Liberato, 1561 - sala 1 - São João,Itajaí - SC,88304-101","","","","","","","ChIJJyuFNG61EZURJvTQxRnKoYg","-8601371601259138010","Endodontista","7","5","-26.907432099999998","-48.6745308"
"Od Odontologia","(47) 3348-4799","","","Rua XV de Novembro, 426 - Centro,Itajaí - SC,88301-420","","","","","","","ChIJP6vymQvM2JQRYVeGMsf8Ejc","3968512154143184737","Clínica odontológica","5","5","-26.909129999999998","-48.655885"
"Dr. Saulo Sirtoli","(47) 3349-6839","administracao@clinicacomunic.com.br","http://www.clinicacomunic.com.br/","Av. Sete de Setembro, 836 - Fazenda,Itajaí - SC,88301-202","https://www.instagram.com/clinicacomunic_","https://www.facebook.com/clinicacomunicitajai","","","","","ChIJlYcQgvXL2JQRjxoteCMiyhQ","1498047361789532815","Cirurgião dentista","5","5","-26.9136673","-48.6565211"
"Dentista Nayla Souza Lima - Itajaí","(47) 98902-3361","","","R. Thadeu Kock, 138 - Ressacada,Itajaí - SC,88307-340","","","","","","","ChIJlWX08JTL2JQRJqXB9MkBFyY","2744664464811992358","Dentista;Clínica odontológica","","","-26.9257894","-48.6763164"
"Brava Odonto","(47) 3514-5149","","","R. Dr. José Bonifácio Malburg, 310 - Centro,Itajaí - SC,88301-350","","","","","","","ChIJq6r2sXLM2JQRMVkngKhxthc","1708678077152188721","Clínica odontológica","207","4.7","-26.905190299999997","-48.6596884"
"Talita Costa Couto Odontologia Integrada","(47) 3228-0273","","","Av. José João Corrêa - Santa Regina,Itajaí - SC,88317-506","","","","","","","ChIJKz2wItwz35QROvFkyShMy78","-4626520454131814086","Cirurgião dentista","2","5","-26.8817426","-48.743947"
"Cláudia Valente","(47) 99912-2828","contato@claudiavalente.com.br","http://www.claudiavalente.com.br/","Rua Camboriú, 26, Ed. Vértice,sala 902 - Centro,Itajaí - SC,88301-450","","","","","","","ChIJ973zpBnN2JQRZTesTLkb9YQ","-8866149808739698843","Dentista;Clínica odontológica;Ortodontista;Odontopediatra;Clínica do sono","43","5","-26.9081516","-48.6570663"